{
  "type": "FeatureCollection",
  "features": [
    {
      "type": "Feature",
      "properties": {
        "norad_id": 66501,
        "name": "STARLINK-35897",
        "group": "last-30-days",
        "lat": 28.41792682652005,
        "lon": -151.89512775309677,
        "alt_km": 365.532716916915,
        "timestamp": "2025-12-04T15:47:52.869289+00:00",
        "meta_object_name": "STARLINK-35897",
        "meta_object_id": "2025-263S",
        "meta_epoch": "2025-12-04T08:00:01.999872",
        "meta_mean_motion": 15.67842909,
        "meta_eccentricity": 0.00017207,
        "meta_inclination": 42.9992,
        "meta_ra_of_asc_node": 174.5537,
        "meta_arg_of_pericenter": 267.5021,
        "meta_mean_anomaly": 101.6448,
        "meta_ephemeris_type": 0,
        "meta_classification_type": "U",
        "meta_norad_cat_id": 66501,
        "meta_element_set_no": 999,
        "meta_rev_at_epoch": 428,
        "meta_bstar": -0.019885559,
        "meta_mean_motion_dot": -0.01986761,
        "meta_mean_motion_ddot": 0,
        "tle_line1": "1 66501U 25263S   25338.33335648 -.01986761  00000+0 -19886-1 0  9994",
        "tle_line2": "2 66501  42.9992 174.5537 0001720 267.5021 101.6448 15.67842909  4289"
      },
      "geometry": {
        "type": "Point",
        "coordinates": [
          -151.89512775309677,
          28.41792682652005
        ]
      }
    },
    {
      "type": "Feature",
      "properties": {
        "norad_id": 66502,
        "name": "STARLINK-35922",
        "group": "last-30-days",
        "lat": 31.497401344300844,
        "lon": -146.29438276807016,
        "alt_km": 365.1985651714567,
        "timestamp": "2025-12-04T15:47:52.869303+00:00",
        "meta_object_name": "STARLINK-35922",
        "meta_object_id": "2025-263T",
        "meta_epoch": "2025-12-04T08:00:01.999872",
        "meta_mean_motion": 15.67829082,
        "meta_eccentricity": 0.00018448,
        "meta_inclination": 42.9992,
        "meta_ra_of_asc_node": 174.5388,
        "meta_arg_of_pericenter": 267.5554,
        "meta_mean_anomaly": 107.3522,
        "meta_ephemeris_type": 0,
        "meta_classification_type": "U",
        "meta_norad_cat_id": 66502,
        "meta_element_set_no": 999,
        "meta_rev_at_epoch": 428,
        "meta_bstar": -0.01973787,
        "meta_mean_motion_dot": -0.01972864,
        "meta_mean_motion_ddot": 0,
        "tle_line1": "1 66502U 25263T   25338.33335648 -.01972864  00000+0 -19738-1 0  9990",
        "tle_line2": "2 66502  42.9992 174.5388 0001844 267.5554 107.3522 15.67829082  4285"
      },
      "geometry": {
        "type": "Point",
        "coordinates": [
          -146.29438276807016,
          31.497401344300844
        ]
      }
    },
    {
      "type": "Feature",
      "properties": {
        "norad_id": 66503,
        "name": "STARLINK-35917",
        "group": "last-30-days",
        "lat": 33.40801530433677,
        "lon": -142.35934389314872,
        "alt_km": 364.8615566800081,
        "timestamp": "2025-12-04T15:47:52.869313+00:00",
        "meta_object_name": "STARLINK-35917",
        "meta_object_id": "2025-263U",
        "meta_epoch": "2025-12-04T08:00:01.999872",
        "meta_mean_motion": 15.67832572,
        "meta_eccentricity": 0.00016782,
        "meta_inclination": 42.9992,
        "meta_ra_of_asc_node": 174.5293,
        "meta_arg_of_pericenter": 267.2137,
        "meta_mean_anomaly": 111.5275,
        "meta_ephemeris_type": 0,
        "meta_classification_type": "U",
        "meta_norad_cat_id": 66503,
        "meta_element_set_no": 999,
        "meta_rev_at_epoch": 428,
        "meta_bstar": -0.019787023,
        "meta_mean_motion_dot": -0.01977309,
        "meta_mean_motion_ddot": 0,
        "tle_line1": "1 66503U 25263U   25338.33335648 -.01977309  00000+0 -19787-1 0  9994",
        "tle_line2": "2 66503  42.9992 174.5293 0001678 267.2137 111.5275 15.67832572  4280"
      },
      "geometry": {
        "type": "Point",
        "coordinates": [
          -142.35934389314872,
          33.40801530433677
        ]
      }
    },
    {
      "type": "Feature",
      "properties": {
        "norad_id": 66504,
        "name": "STARLINK-35916",
        "group": "last-30-days",
        "lat": 32.32404682118814,
        "lon": -49.48249535122647,
        "alt_km": 411.79724793661353,
        "timestamp": "2025-12-04T15:47:52.869329+00:00",
        "meta_object_name": "STARLINK-35916",
        "meta_object_id": "2025-263V",
        "meta_epoch": "2025-12-04T08:00:01.999872",
        "meta_mean_motion": 15.50890123,
        "meta_eccentricity": 0.00017883,
        "meta_inclination": 42.9992,
        "meta_ra_of_asc_node": 175.1885,
        "meta_arg_of_pericenter": 279.7388,
        "meta_mean_anomaly": 192.7717,
        "meta_ephemeris_type": 0,
        "meta_classification_type": "U",
        "meta_norad_cat_id": 66504,
        "meta_element_set_no": 999,
        "meta_rev_at_epoch": 428,
        "meta_bstar": -0.015027115,
        "meta_mean_motion_dot": -0.00816865,
        "meta_mean_motion_ddot": 0,
        "tle_line1": "1 66504U 25263V   25338.33335648 -.00816865  00000+0 -15027-1 0  9996",
        "tle_line2": "2 66504  42.9992 175.1885 0001788 279.7388 192.7717 15.50890123  4283"
      },
      "geometry": {
        "type": "Point",
        "coordinates": [
          -49.48249535122647,
          32.32404682118814
        ]
      }
    },
    {
      "type": "Feature",
      "properties": {
        "norad_id": 66505,
        "name": "STARLINK-34766",
        "group": "last-30-days",
        "lat": 29.46981144037848,
        "lon": -150.0683046443214,
        "alt_km": 365.39604902478186,
        "timestamp": "2025-12-04T15:47:52.869339+00:00",
        "meta_object_name": "STARLINK-34766",
        "meta_object_id": "2025-263W",
        "meta_epoch": "2025-12-04T08:00:01.999872",
        "meta_mean_motion": 15.67846658,
        "meta_eccentricity": 0.00016555,
        "meta_inclination": 42.9991,
        "meta_ra_of_asc_node": 174.5484,
        "meta_arg_of_pericenter": 265.4467,
        "meta_mean_anomaly": 105.615,
        "meta_ephemeris_type": 0,
        "meta_classification_type": "U",
        "meta_norad_cat_id": 66505,
        "meta_element_set_no": 999,
        "meta_rev_at_epoch": 428,
        "meta_bstar": -0.01993246,
        "meta_mean_motion_dot": -0.01991103,
        "meta_mean_motion_ddot": 0,
        "tle_line1": "1 66505U 25263W   25338.33335648 -.01991103  00000+0 -19932-1 0  9996",
        "tle_line2": "2 66505  42.9991 174.5484 0001655 265.4467 105.6150 15.67846658  4280"
      },
      "geometry": {
        "type": "Point",
        "coordinates": [
          -150.0683046443214,
          29.46981144037848
        ]
      }
    },
    {
      "type": "Feature",
      "properties": {
        "norad_id": 66506,
        "name": "STARLINK-34765",
        "group": "last-30-days",
        "lat": 30.4962748554432,
        "lon": -148.20229157161384,
        "alt_km": 365.3099208158883,
        "timestamp": "2025-12-04T15:47:52.869349+00:00",
        "meta_object_name": "STARLINK-34765",
        "meta_object_id": "2025-263X",
        "meta_epoch": "2025-12-04T08:00:01.999872",
        "meta_mean_motion": 15.67847404,
        "meta_eccentricity": 0.00016956,
        "meta_inclination": 42.9992,
        "meta_ra_of_asc_node": 174.5443,
        "meta_arg_of_pericenter": 263.5582,
        "meta_mean_anomaly": 109.4195,
        "meta_ephemeris_type": 0,
        "meta_classification_type": "U",
        "meta_norad_cat_id": 66506,
        "meta_element_set_no": 999,
        "meta_rev_at_epoch": 428,
        "meta_bstar": -0.019941085,
        "meta_mean_motion_dot": -0.01991948,
        "meta_mean_motion_ddot": 0,
        "tle_line1": "1 66506U 25263X   25338.33335648 -.01991948  00000+0 -19941-1 0  9994",
        "tle_line2": "2 66506  42.9992 174.5443 0001695 263.5582 109.4195 15.67847404  4289"
      },
      "geometry": {
        "type": "Point",
        "coordinates": [
          -148.20229157161384,
          30.4962748554432
        ]
      }
    },
    {
      "type": "Feature",
      "properties": {
        "norad_id": 66507,
        "name": "STARLINK-34767",
        "group": "last-30-days",
        "lat": 32.46758180184167,
        "lon": -144.3492908502067,
        "alt_km": 365.0120043511197,
        "timestamp": "2025-12-04T15:47:52.869359+00:00",
        "meta_object_name": "STARLINK-34767",
        "meta_object_id": "2025-263Y",
        "meta_epoch": "2025-12-04T08:00:01.999872",
        "meta_mean_motion": 15.67844568,
        "meta_eccentricity": 0.00017569,
        "meta_inclination": 42.9992,
        "meta_ra_of_asc_node": 174.5336,
        "meta_arg_of_pericenter": 267.8039,
        "meta_mean_anomaly": 109.0097,
        "meta_ephemeris_type": 0,
        "meta_classification_type": "U",
        "meta_norad_cat_id": 66507,
        "meta_element_set_no": 999,
        "meta_rev_at_epoch": 428,
        "meta_bstar": -0.01990643,
        "meta_mean_motion_dot": -0.01988746,
        "meta_mean_motion_ddot": 0,
        "tle_line1": "1 66507U 25263Y   25338.33335648 -.01988746  00000+0 -19906-1 0  9998",
        "tle_line2": "2 66507  42.9992 174.5336 0001756 267.8039 109.0097 15.67844568  4288"
      },
      "geometry": {
        "type": "Point",
        "coordinates": [
          -144.3492908502067,
          32.46758180184167
        ]
      }
    }
  ]
}